49305,ONEWEB-0379,2021,109.55,148.0,+,87.9,Active,1,LEO,Russia,UK,Commercial,Communications,Soyuz,1 49305U 21090AC  25159.07117187 -.00000032  00000+0 -12162-3 0  9998,2 49305  87.9038   4.1336 0001653  88.0653 272.0666 13.14502730178416,13.1450273,0.0001653,LEO
49306,ONEWEB-0380,2021,109.11,148.0,+,87.92,Active,1,LEO,Russia,UK,Commercial,Communications,Soyuz,1 49306U 21090AD  25159.10505943  .00000117  00000+0  26062-3 0  9990,2 49306  87.9229  19.3433 0001875  77.9099 282.2244 13.19727423177082,13.19727423,0.0001875,LEO
49307,ONEWEB-0381,2021,109.03,148.0,+,87.93,Active,1,LEO,Russia,UK,Commercial,Communications,Soyuz,1 49307U 21090AE  25159.98038056  .00000022  00000+0  21120-4 0  9999,2 49307  87.9258 348.7678 0001740  81.0914 279.0416 13.20771716180566,13.20771716,0.000174,LEO
49308,ONEWEB-0382,2021,109.03,148.0,+,87.93,Active,1,LEO,Russia,UK,Commercial,Communications,Soyuz,1 49308U 21090AF  25159.96774455  .00000033  00000+0  50018-4 0  9998,2 49308  87.9258 348.7648 0001543  82.1943 277.9366 13.20771826180551,13.20771826,0.0001543,LEO
49309,ONEWEB-0383,2021,109.55,148.0,+,87.9,Active,1,LEO,Russia,UK,Commercial,Communications,Soyuz,1 49309U 21090AG  25159.29318453 -.00000110  00000+0 -33163-3 0  9996,2 49309  87.9037   4.0700 0001589  88.1163 272.0149 13.14503833178475,13.14503833,0.0001589,LEO
49310,ONEWEB-0384,2021,109.03,148.0,+,87.93,Active,1,LEO,Russia,UK,Commercial,Communications,Soyuz,1 49310U 21090AH  25159.43362210 -.00000053  00000+0 -16141-3 0  9997,2 49310  87.9260 348.8877 0001378  79.1093 281.0195 13.20784995180490,13.20784995,0.0001378,LEO
49311,ONEWEB-0385,2021,109.03,148.0,+,87.93,Active,1,LEO,Russia,UK,Commercial,Communications,Soyuz,1 49311U 21090AJ  25159.27805223 -.00000038  00000+0 -12574-3 0  9995,2 49311  87.9259 348.9195 0001695  86.7577 273.3750 13.20771432180444,13.20771432,0.0001695,LEO
49312,ONEWEB-0386,2021,109.03,148.0,+,87.93,Active,1,LEO,Russia,UK,Commercial,Communications,Soyuz,1 49312U 21090AK  25159.74994266  .00000016  00000+0  84872-5 0  9990,2 49312  87.9253 348.7965 0001519  85.9540 274.1767 13.20771602180523,13.20771602,0.0001519,LEO
